EUTELSAT 7A             
1 28187U 04008A   25326.47596987  .00000123  00000+0  00000+0 0  9995
2 28187   5.3042  74.4794 0000749 160.8402 218.5434  1.00270956 79281
EUTELSAT 174A           
1 28924U 05052A   25326.69233500  .00000030  00000+0  00000+0 0  9994
2 28924   3.6946  79.0866 0006086 160.9090 245.2160  1.00269741 50269
EUTELSAT HOTBIRD 13B    
1 29270U 06032A   25326.73575527  .00000177  00000+0  00000+0 0  9993
2 29270   1.1260  84.5394 0003299 154.6802 120.7418  1.00274524 45236
EUTELSAT HOTBIRD 13C    
1 33459U 08065A   25326.72292852 -.00000224  00000+0  00000+0 0  9995
2 33459   2.4172  81.6367 0000805 127.1214  81.9716  1.00053382 45276
EUTELSAT 36B            
1 36101U 09065A   25326.73922196  .00000133  00000+0  00000+0 0  9993
2 36101   0.0417 356.2073 0005884 244.7027 137.7065  1.00270137 58634
EUTELSAT KA-SAT 9A      
1 37258U 10069A   25326.73098858  .00000083  00000+0  00000+0 0  9996
2 37258   0.0576 321.4365 0002274 224.6374 148.0901  1.00269330 41936
EUTELSAT 7 WEST A       
1 37816U 11051A   25326.72778189 -.00000038  00000+0  00000+0 0  9990
2 37816   0.0756  27.6296 0005930 192.4066  96.6483  1.00272798 51808
EUTELSAT 16A            
1 37836U 11057A   25326.73237523  .00000125  00000+0  00000+0 0  9997
2 37836   0.0610 357.5612 0005964 251.0639  93.0148  1.00269555  5255
